#dV2023  2 13 22  0  0.00000000    1682       CTS   FIT  GFZ
## 2249 165600.00000000    30.00000000 59988 0.9166666666667
+    1   L64  0  0  0  0  0  0  0  0  0  0  0  0  0  0  0  0
+          0  0  0  0  0  0  0  0  0  0  0  0  0  0  0  0  0
+          0  0  0  0  0  0  0  0  0  0  0  0  0  0  0  0  0
+          0  0  0  0  0  0  0  0  0  0  0  0  0  0  0  0  0
+          0  0  0  0  0  0  0  0  0  0  0  0  0  0  0  0  0
++         0  0  0  0  0  0  0  0  0  0  0  0  0  0  0  0  0
++         0  0  0  0  0  0  0  0  0  0  0  0  0  0  0  0  0
++         0  0  0  0  0  0  0  0  0  0  0  0  0  0  0  0  0
++         0  0  0  0  0  0  0  0  0  0  0  0  0  0  0  0  0
++         0  0  0  0  0  0  0  0  0  0  0  0  0  0  0  0  0
%c L  cc GPS ccc cccc cccc cccc cccc ccccc ccccc ccccc ccccc
%c cc cc ccc ccc cccc cccc cccc cccc ccccc ccccc ccccc ccccc
%f  0.0000000  0.000000000  0.00000000000  0.000000000000000
%f  0.0000000  0.000000000  0.00000000000  0.000000000000000
%i    0    0    0    0      0      0      0      0         0
%i    0    0    0    0      0      0      0      0         0
/* CCCCCCCCCCCCCCCCCCCCCCCCCCCCCCCCCCCCCCCCCCCCCCCCCCCCCCCCCCCCCCCCCCCCCCCCCCCCC
/* C                             GFZ RSO-ORBIT                                 C
/* C DOI: https://doi.org/10.5880/GFZ_ORBIT/RSO/L64_G_v02                      C
/* C                                                                           C
/* C DORIS        RMS: not applicable                                          C
/* C GNSS-E Code  RMS: not applicable                                          C
/* C GNSS-E Phase RMS: not applicable                                          C
/* C GNSS-G Code  RMS:  50.233 [cm]   Obs.acc.:     13503 Obs.eli.:      1191  C
/* C GNSS-G Phase RMS:   4.473 [mm]   Obs.acc.:     13503 Obs.eli.:      1191  C
/* C SLR          RMS:   1.735 [cm]   Obs.acc.:        21 Obs.eli.:         0  C
/* C                                                                           C
/* CCCCCCCCCCCCCCCCCCCCCCCCCCCCCCCCCCCCCCCCCCCCCCCCCCCCCCCCCCCCCCCCCCCCCCCCCCCCC
*  2023  2 14  1 24  0.00000000
PL64    822.709307    188.770838   6800.740990  13732.559606
VL64  70725.363927  26765.283909  -9362.056018 999999.999999
*  2023  2 14  1 24 30.00000000
PL64   1034.567179    268.484036   6768.880015  13733.019581
VL64  70499.929759  26372.121105 -11876.685715 999999.999999
*  2023  2 14  1 25  0.00000000
PL64   1245.629224    346.975593   6729.493718  13733.479549
VL64  70194.836801  25950.988024 -14378.473710 999999.999999
*  2023  2 14  1 25 30.00000000
PL64   1455.656730    424.162797   6682.624792  13733.939508
VL64  69810.276611  25502.688748 -16864.642912 999999.999999
*  2023  2 14  1 26  0.00000000
PL64   1664.411695    499.965392   6628.324241  13734.399471
VL64  69346.531368  25028.057086 -19332.431509 999999.999999
*  2023  2 14  1 26 30.00000000
PL64   1871.657102    574.305668   6566.651328  13734.859422
VL64  68803.973625  24527.954992 -21779.095339 999999.999999
*  2023  2 14  1 27  0.00000000
PL64   2077.157185    647.108540   6497.673518  13735.319362
VL64  68183.067210  24003.271385 -24201.910776 999999.999999
*  2023  2 14  1 27 30.00000000
PL64   2280.677709    718.301628   6421.466412  13735.779327
VL64  67484.367113  23454.920280 -26598.178374 999999.999999
*  2023  2 14  1 28  0.00000000
PL64   2481.986238    787.815330   6338.113670  13736.239288
VL64  66708.519414  22883.838552 -28965.225651 999999.999999
*  2023  2 14  1 28 30.00000000
PL64   2680.852412    855.582887   6247.706922  13736.699225
VL64  65856.261224  22290.984736 -31300.410561 999999.999999
*  2023  2 14  1 29  0.00000000
PL64   2877.048218    921.540446   6150.345678  13737.159188
VL64  64928.419228  21677.338472 -33601.124999 999999.999999
*  2023  2 14  1 29 30.00000000
PL64   3070.348255    985.627124   6046.137215  13737.619124
VL64  63925.908124  21043.899659 -35864.797392 999999.999999
*  2023  2 14  1 30  0.00000000
PL64   3260.529997   1047.785069   5935.196469  13738.079092
VL64  62849.730133  20391.686888 -38088.895348 999999.999999
*  2023  2 14  1 30 30.00000000
PL64   3447.374055   1107.959506   5817.645909  13738.539028
VL64  61700.974242  19721.735209 -40270.928839 999999.999999
*  2023  2 14  1 31  0.00000000
PL64   3630.664436   1166.098790   5693.615408  13738.998983
VL64  60480.814619  19035.094096 -42408.452084 999999.999999
*  2023  2 14  1 31 30.00000000
PL64   3810.188796   1222.154444   5563.242109  13739.458922
VL64  59190.510469  18332.826378 -44499.064932 999999.999999
*  2023  2 14  1 32  0.00000000
PL64   3985.738696   1276.081197   5426.670281  13739.918843
VL64  57831.405773  17616.007082 -46540.416638 999999.999999
*  2023  2 14  1 32 30.00000000
PL64   4157.109853   1327.837020   5284.051171  13740.378773
VL64  56404.926615  16885.721992 -48530.208444 999999.999999
*  2023  2 14  1 33  0.00000000
PL64   4324.102386   1377.383159   5135.542839  13740.838688
VL64  54912.581125  16143.067011 -50466.194017 999999.999999
*  2023  2 14  1 33 30.00000000
PL64   4486.521062   1424.684157   4981.310004  13741.298604
VL64  53355.960985  15389.147074 -52346.183717 999999.999999
*  2023  2 14  1 34  0.00000000
PL64   4644.175548   1469.707888   4821.523862  13741.758526
VL64  51736.739120  14625.073694 -54168.050230 999999.999999
*  2023  2 14  1 34 30.00000000
PL64   4796.880644   1512.425561   4656.361891  13742.218434
VL64  50056.666649  13851.962049 -55929.730992 999999.999999
*  2023  2 14  1 35  0.00000000
PL64   4944.456522   1552.811739   4486.007660  13742.678370
VL64  48317.571105  13070.929481 -57629.230011 999999.999999
*  2023  2 14  1 35 30.00000000
PL64   5086.728948   1590.844337   4310.650621  13743.138261
VL64  46521.355205  12283.096274 -59264.621366 999999.999999
*  2023  2 14  1 36  0.00000000
PL64   5223.529505   1626.504638   4130.485892  13743.598181
VL64  44669.993559  11489.584996 -60834.054864 999999.999999
*  2023  2 14  1 36 30.00000000
PL64   5354.695801   1659.777291   3945.714025  13744.058069
VL64  42765.526265  10691.517370 -62335.757844 999999.999999
*  2023  2 14  1 37  0.00000000
PL64   5480.071658   1690.650305   3756.540776  13744.517970
VL64  40810.056538   9890.011528 -63768.032162 999999.999999
*  2023  2 14  1 37 30.00000000
PL64   5599.507304   1719.115034   3563.176886  13744.977845
VL64  38805.752272   9086.179604 -65129.254630 999999.999999
*  2023  2 14  1 38  0.00000000
PL64   5712.859567   1745.166161   3365.837847  13745.437739
VL64  36754.845186   8281.126249 -66417.880881 999999.999999
*  2023  2 14  1 38 30.00000000
PL64   5819.992063   1768.801668   3164.743662  13745.897618
VL64  34659.628045   7475.948751 -67632.448686 999999.999999
*  2023  2 14  1 39  0.00000000
PL64   5920.775374   1790.022819   2960.118594  13746.357496
VL64  32522.451563   6671.736123 -68771.580934 999999.999999
*  2023  2 14  1 39 30.00000000
PL64   6015.087216   1808.834128   2752.190905  13746.817381
VL64  30345.720518   5869.566712 -69833.987643 999999.999999
*  2023  2 14  1 40  0.00000000
PL64   6102.812597   1825.243329   2541.192599  13747.277242
VL64  28131.891126   5070.506616 -70818.466325 999999.999999
*  2023  2 14  1 40 30.00000000
PL64   6183.843970   1839.261331   2327.359151  13747.737104
VL64  25883.470243   4275.608662 -71723.904470 999999.999999
*  2023  2 14  1 41  0.00000000
PL64   6258.081379   1850.902181   2110.929234  13748.196966
VL64  23603.010711   3485.910615 -72549.284415 999999.999999
*  2023  2 14  1 41 30.00000000
PL64   6325.432586   1860.183015   1892.144428  13748.656823
VL64  21293.103730   2702.433065 -73293.683793 999999.999999
*  2023  2 14  1 42  0.00000000
PL64   6385.813179   1867.124002   1671.248944  13749.116685
VL64  18956.376088   1926.177687 -73956.272717 999999.999999
*  2023  2 14  1 42 30.00000000
PL64   6439.146683   1871.748286   1448.489343  13749.576547
VL64  16595.490324   1158.126207 -74536.314185 999999.999999
*  2023  2 14  1 43  0.00000000
PL64   6485.364658   1874.081926   1224.114251  13750.036401
VL64  14213.142376    399.239921 -75033.166720 999999.999999
*  2023  2 14  1 43 30.00000000
PL64   6524.406799   1874.153832    998.374078  13750.496249
VL64  11812.057128   -349.541199 -75446.286312 999999.999999
*  2023  2 14  1 44  0.00000000
PL64   6556.221013   1871.995702    771.520716  13750.956100
VL64   9394.984406  -1087.299828 -75775.226519 999999.999999
*  2023  2 14  1 44 30.00000000
PL64   6580.763490   1867.641950    543.807250  13751.415949
VL64   6964.696844  -1813.142423 -76019.639349 999999.999999
*  2023  2 14  1 45  0.00000000
PL64   6597.998770   1861.129632    315.487657  13751.875798
VL64   4523.985958  -2526.200917 -76179.278356 999999.999999
*  2023  2 14  1 45 30.00000000
PL64   6607.899785   1852.498369     86.816501  13752.335643
VL64   2075.654567  -3225.635107 -76253.999179 999999.999999
*  2023  2 14  1 46  0.00000000
PL64   6610.447885   1841.790258   -141.951370  13752.795492
VL64   -377.488684  -3910.633576 -76243.755561 999999.999999
*  2023  2 14  1 46 30.00000000
PL64   6605.632855   1829.049787   -370.561114  13753.255354
VL64  -2832.629846  -4580.413495 -76148.596938 999999.999999
*  2023  2 14  1 47  0.00000000
PL64   6593.452926   1814.323750   -598.758180  13753.715208
VL64  -5286.951213  -5234.222160 -75968.669780 999999.999999
*  2023  2 14  1 47 30.00000000
PL64   6573.914785   1797.661147   -826.288604  13754.175054
VL64  -7737.635114  -5871.339151 -75704.217103 999999.999999
*  2023  2 14  1 48  0.00000000
PL64   6547.033568   1779.113095  -1052.899293  13754.634899
VL64 -10181.866212  -6491.076355 -75355.577697 999999.999999
*  2023  2 14  1 48 30.00000000
PL64   6512.832851   1758.732726  -1278.338316  13755.094766
VL64 -12616.834306  -7092.777427 -74923.187355 999999.999999
*  2023  2 14  1 49  0.00000000
PL64   6471.344627   1736.575092  -1502.355196  13755.554621
VL64 -15039.738231  -7675.818678 -74407.579722 999999.999999
EOF
